COMMENT,ORIGINATOR,NORAD_CAT_ID,OBJECT_NAME,OBJECT_TYPE,CLASSIFICATION_TYPE,INTLDES,EPOCH,EPOCH_MICROSECONDS,MEAN_MOTION,ECCENTRICITY,INCLINATION,RA_OF_ASC_NODE,ARG_OF_PERICENTER,MEAN_ANOMALY,EPHEMERIS_TYPE,ELEMENT_SET_NO,REV_AT_EPOCH,BSTAR,MEAN_MOTION_DOT,MEAN_MOTION_DDOT,FILE,TLE_LINE0,TLE_LINE1,TLE_LINE2,OBJECT_ID,OBJECT_NUMBER,SEMIMAJOR_AXIS,PERIOD,APOGEE,PERIGEE,DECAYED
"GENERATED VIA SPACETRACK.ORG API","18 SPCS","56232","FENGYUN 3G","PAYLOAD","U","23055A","2024-02-04 12:52:08","101632","15.54456818","0.0005723","49.9966","119.5599","330.5552","29.5093","0","999","4576","0.00054781","0.00036466","0","4179372","0 FENGYUN 3G","1 56232U 23055A   24035.53620488  .00036466  00000-0  54781-3 0  9996","2 56232  49.9966 119.5599 0005723 330.5552  29.5093 15.54456818 45769","2023-055A","56232","6781.869","92.637","407.615","399.853","0"
"GENERATED VIA SPACETRACK.ORG API","18 SPCS","56232","FENGYUN 3G","PAYLOAD","U","23055A","2024-02-04 17:29:49","913952","15.54473681","0.0005725","49.9965","118.5635","331.4588","28.6066","0","999","4579","0.00057748","0.00038501","0","4179594","0 FENGYUN 3G","1 56232U 23055A   24035.72904993  .00038501  00000-0  57748-3 0  9991","2 56232  49.9965 118.5635 0005725 331.4588  28.6066 15.54473681 45799","2023-055A","56232","6781.820","92.636","407.568","399.802","0"
"GENERATED VIA SPACETRACK.ORG API","18 SPCS","56232","FENGYUN 3G","PAYLOAD","U","23055A","2024-02-04 17:29:49","913952","15.54473681","0.0005725","49.9965","118.5635","331.4588","28.6066","0","999","4579","0.00057748","0.00038501","0","4179687","0 FENGYUN 3G","1 56232U 23055A   24035.72904993  .00038501  00000-0  57748-3 0  9991","2 56232  49.9965 118.5635 0005725 331.4588  28.6066 15.54473681 45799","2023-055A","56232","6781.820","92.636","407.568","399.802","0"
"GENERATED VIA SPACETRACK.ORG API","18 SPCS","56232","FENGYUN 3G","PAYLOAD","U","23055A","2024-02-05 02:45:13","91040","15.54502649","0.0005699","49.9965","116.5708","332.9438","27.1233","0","999","4585","0.00058358","0.00038957","0","4179930","0 FENGYUN 3G","1 56232U 23055A   24036.11473485  .00038957  00000-0  58358-3 0  9995","2 56232  49.9965 116.5708 0005699 332.9438  27.1233 15.54502649 45852","2023-055A","56232","6781.736","92.634","407.466","399.736","0"
"GENERATED VIA SPACETRACK.ORG API","18 SPCS","56232","FENGYUN 3G","PAYLOAD","U","23055A","2024-02-05 10:28:01","893792","15.54528788","0.0005685","49.9966","114.9103","334.4679","25.6007","0","999","4590","0.0006067","0.00040566","0","4180273","0 FENGYUN 3G","1 56232U 23055A   24036.43613303  .00040566  00000-0  60670-3 0  9994","2 56232  49.9966 114.9103 0005685 334.4679  25.6007 15.54528788 45903","2023-055A","56232","6781.660","92.633","407.380","399.669","0"
"GENERATED VIA SPACETRACK.ORG API","18 SPCS","56232","FENGYUN 3G","PAYLOAD","U","23055A","2024-02-05 13:33:09","288576","15.54540037","0.0005685","49.9966","114.2463","335.1062","24.9631","0","999","4592","0.00062451","0.00041795","0","4180290","0 FENGYUN 3G","1 56232U 23055A   24036.56469084  .00041795  00000-0  62451-3 0  9997","2 56232  49.9966 114.2463 0005685 335.1062  24.9631 15.54540037 45927","2023-055A","56232","6781.627","92.632","407.347","399.637","0"
"GENERATED VIA SPACETRACK.ORG API","18 SPCS","56232","FENGYUN 3G","PAYLOAD","U","23055A","2024-02-05 16:38:16","602144","15.54551162","0.00057","49.9966","113.5818","335.7532","24.3167","0","999","4594","0.00062969","0.00042165","0","4180520","0 FENGYUN 3G","1 56232U 23055A   24036.69324771  .00042165  00000-0  62969-3 0  9990","2 56232  49.9966 113.5818 0005700 335.7532  24.3167 15.54551162 45940","2023-055A","56232","6781.595","92.631","407.325","399.594","0"
"GENERATED VIA SPACETRACK.ORG API","18 SPCS","56232","FENGYUN 3G","PAYLOAD","U","23055A","2024-02-05 18:10:50","227392","15.54556112","0.0005704","49.9966","113.2496","336.0498","24.0204","0","999","4595","0.0006169","0.00041302","0","4180535","0 FENGYUN 3G","1 56232U 23055A   24036.75752578  .00041302  00000-0  61690-3 0  9999","2 56232  49.9966 113.2496 0005704 336.0498  24.0204 15.54556112 45958","2023-055A","56232","6781.580","92.631","407.313","399.577","0"
"GENERATED VIA SPACETRACK.ORG API","18 SPCS","56232","FENGYUN 3G","PAYLOAD","U","23055A","2024-02-06 04:58:45","58080","15.54594884","0.0005695","49.9969","110.9247","338.1267","21.9457","0","999","4602","0.0006303","0.00042275","0","4180824","0 FENGYUN 3G","1 56232U 23055A   24037.20746595  .00042275  00000-0  63030-3 0  9992","2 56232  49.9969 110.9247 0005695 338.1267  21.9457 15.54594884 46028","2023-055A","56232","6781.468","92.629","407.195","399.470","0"
"GENERATED VIA SPACETRACK.ORG API","18 SPCS","56232","FENGYUN 3G","PAYLOAD","U","23055A","2024-02-06 14:15:09","395136","15.51945483","0.0005656","49.9971","108.9364","157.6569","202.4645","0","999","4608","0.00073139","0.00044614","0","4181108","0 FENGYUN 3G","1 56232U 23055A   24037.59385874  .00044614  00000-0  73139-3 0  9993","2 56232  49.9971 108.9364 0005656 157.6569 202.4645 15.51945483 46087","2023-055A","56232","6789.183","92.787","414.888","407.208","0"
"GENERATED VIA SPACETRACK.ORG API","18 SPCS","56232","FENGYUN 3G","PAYLOAD","U","23055A","2024-02-06 17:20:35","313216","15.5195405","0.0005612","49.9971","108.2739","157.3196","202.802","0","999","4610","0.00065195","0.00039705","0","4181408","0 FENGYUN 3G","1 56232U 23055A   24037.72263094  .00039705  00000-0  65195-3 0  9995","2 56232  49.9971 108.2739 0005612 157.3196 202.8020 15.51954050 46105","2023-055A","56232","6789.158","92.786","414.833","407.213","0"
"GENERATED VIA SPACETRACK.ORG API","18 SPCS","56232","FENGYUN 3G","PAYLOAD","U","23055A","2024-02-06 17:20:35","313216","15.5195405","0.0005612","49.9971","108.2739","157.3196","202.802","0","999","4610","0.00065195","0.00039705","0","4181430","0 FENGYUN 3G","1 56232U 23055A   24037.72263094  .00039705  00000-0  65195-3 0  9995","2 56232  49.9971 108.2739 0005612 157.3196 202.8020 15.51954050 46105","2023-055A","56232","6789.158","92.786","414.833","407.213","0"
"GENERATED VIA SPACETRACK.ORG API","18 SPCS","56232","FENGYUN 3G","PAYLOAD","U","23055A","2024-02-07 04:09:35","364672","15.51989902","0.0005581","49.9972","105.9544","158.4749","201.6454","0","999","4617","0.00063578","0.00038754","0","4181670","0 FENGYUN 3G","1 56232U 23055A   24038.17332598  .00038754  00000-0  63578-3 0  9997","2 56232  49.9972 105.9544 0005581 158.4749 201.6454 15.51989902 46174","2023-055A","56232","6789.054","92.784","414.708","407.130","0"
"GENERATED VIA SPACETRACK.ORG API","18 SPCS","56232","FENGYUN 3G","PAYLOAD","U","23055A","2024-02-07 10:20:26","408544","15.52009359","0.0005576","49.9973","104.6291","159.2069","200.9125","0","999","4621","0.0006159","0.00037548","0","4182029","0 FENGYUN 3G","1 56232U 23055A   24038.43086121  .00037548  00000-0  61590-3 0  9996","2 56232  49.9973 104.6291 0005576 159.2069 200.9125 15.52009359 46210","2023-055A","56232","6788.997","92.783","414.648","407.076","0"
"GENERATED VIA SPACETRACK.ORG API","18 SPCS","56232","FENGYUN 3G","PAYLOAD","U","23055A","2024-02-07 13:25:51","819456","15.52020886","0.0005561","49.9973","103.9663","159.5554","200.5636","0","999","4623","0.00063747","0.00038902","0","4182068","0 FENGYUN 3G","1 56232U 23055A   24038.55962754  .00038902  00000-0  63747-3 0  9995","2 56232  49.9973 103.9663 0005561 159.5554 200.5636 15.52020886 46234","2023-055A","56232","6788.963","92.782","414.604","407.053","0"
"GENERATED VIA SPACETRACK.ORG API","18 SPCS","56232","FENGYUN 3G","PAYLOAD","U","23055A","2024-02-07 14:58:34","500288","15.52026098","0.0005565","49.9972","103.6349","159.7765","200.3423","0","999","4624","0.00063729","0.00038899","0","4182360","0 FENGYUN 3G","1 56232U 23055A   24038.62401042  .00038899  00000-0  63729-3 0  9996","2 56232  49.9972 103.6349 0005565 159.7765 200.3423 15.52026098 46245","2023-055A","56232","6788.948","92.782","414.591","407.035","0"
"GENERATED VIA SPACETRACK.ORG API","18 SPCS","56232","FENGYUN 3G","PAYLOAD","U","23055A","2024-02-07 21:09:25","21440","15.52046527","0.0005568","49.9972","102.3093","160.7047","199.4132","0","999","4628","0.00062929","0.00038431","0","4182370","0 FENGYUN 3G","1 56232U 23055A   24038.88153960  .00038431  00000-0  62929-3 0  9990","2 56232  49.9972 102.3093 0005568 160.7047 199.4132 15.52046527 46283","2023-055A","56232","6788.889","92.781","414.534","406.974","0"
"GENERATED VIA SPACETRACK.ORG API","18 SPCS","56232","FENGYUN 3G","PAYLOAD","U","23055A","2024-02-08 00:14:50","184384","15.52056427","0.0005569","49.9972","101.6465","161.1674","198.9499","0","999","4630","0.00063396","0.00038735","0","4182602","0 FENGYUN 3G","1 56232U 23055A   24039.01030306  .00038735  00000-0  63396-3 0  9990","2 56232  49.9972 101.6465 0005569 161.1674 198.9499 15.52056427 46303","2023-055A","56232","6788.860","92.780","414.505","406.944","0"
"GENERATED VIA SPACETRACK.ORG API","18 SPCS","56232","FENGYUN 3G","PAYLOAD","U","23055A","2024-02-08 11:03:47","659392","15.52092776","0.000557","49.9971","99.3268","162.726","197.3897","0","999","4637","0.00065315","0.0003998","0","4182928","0 FENGYUN 3G","1 56232U 23055A   24039.46096828  .00039980  00000-0  65315-3 0  9996","2 56232  49.9971  99.3268 0005570 162.7260 197.3897 15.52092776 46375","2023-055A","56232","6788.754","92.778","414.400","406.837","0"
"GENERATED VIA SPACETRACK.ORG API","18 SPCS","56232","FENGYUN 3G","PAYLOAD","U","23055A","2024-02-08 14:09:12","498336","15.52103514","0.0005569","49.997","98.6642","163.1671","196.9482","0","999","4639","0.00066573","0.00040779","0","4182958","0 FENGYUN 3G","1 56232U 23055A   24039.58972799  .00040779  00000-0  66573-3 0  9994","2 56232  49.9970  98.6642 0005569 163.1671 196.9482 15.52103514 46391","2023-055A","56232","6788.722","92.777","414.368","406.807","0"
